ORBCOMM FM05            
1 25117U 97084F   24118.51931057  .00004429  00000+0  13625-2 0  9998
2 25117  45.0134 198.7124 0004217 277.4649  82.5722 14.42618789380513
ORBCOMM FM06            
1 25118U 97084G   24118.36227528  .00005144  00000+0  15744-2 0  9992
2 25118  45.0127 199.6336 0003322 277.7633 198.0189 14.42651892381404
ORBCOMM FM07            
1 25119U 97084H   24118.53832274  .00004058  00000+0  12530-2 0  9995
2 25119  45.0122 199.3221 0005023 272.4047  87.6228 14.42575367381422
ORBCOMM FM03            
1 25158U 98007B   24118.59726777  .00002345  00000+0  90713-3 0  9997
2 25158 107.9729   3.3048 0048576 255.3337 104.2413 14.32111165364490
ORBCOMM FM04            
1 25159U 98007C   24118.58824823  .00002614  00000+0  10028-2 0  9997
2 25159 107.9710   6.2141 0044090 253.3095 106.3202 14.32370682364662
ORBCOMM FM17            
1 25413U 98046A   24118.52579055  .00002765  00000+0  10500-2 0  9993
2 25413  44.9945  56.2836 0003426 303.5439  56.5080 14.33089571343504
ORBCOMM FM18            
1 25414U 98046B   24118.33636158  .00003726  00000+0  13226-2 0  9997
2 25414  44.9941 344.5495 0004143 351.4718   8.6058 14.35833681344420
ORBCOMM FM19            
1 25415U 98046C   24117.68018317  .00003685  00000+0  13133-2 0  9997
2 25415  44.9951 349.0433 0003128 341.2893  47.0878 14.35663187344291
