<?xml version="1.0" encoding="UTF-8"?>
<ndm xmlns:xsi="http://www.w3.org/2001/XMLSchema-instance" xsi:noNamespaceSchemaLocation="https://sanaregistry.org/r/ndmxml_unqualified/ndmxml-2.0.0-master-2.0.xsd">
<omm id="CCSDS_OMM_VERS" version="2.0">
<header><CREATION_DATE/><ORIGINATOR/></header><body><segment><metadata><OBJECT_NAME>ORBCOMM FM05</OBJECT_NAME><OBJECT_ID>1997-084F</OBJECT_ID><CENTER_NAME>EARTH</CENTER_NAME><REF_FRAME>TEME</REF_FRAME><TIME_SYSTEM>UTC</TIME_SYSTEM><MEAN_ELEMENT_THEORY>SGP4</MEAN_ELEMENT_THEORY></metadata><data><meanElements><EPOCH>2024-04-27T12:27:48.433248</EPOCH><MEAN_MOTION>14.42618789</MEAN_MOTION><ECCENTRICITY>.0004217</ECCENTRICITY><INCLINATION>45.0134</INCLINATION><RA_OF_ASC_NODE>198.7124</RA_OF_ASC_NODE><ARG_OF_PERICENTER>277.4649</ARG_OF_PERICENTER><MEAN_ANOMALY>82.5722</MEAN_ANOMALY></meanElements><tleParameters><EPHEMERIS_TYPE>0</EPHEMERIS_TYPE><CLASSIFICATION_TYPE>U</CLASSIFICATION_TYPE><NORAD_CAT_ID>25117</NORAD_CAT_ID><ELEMENT_SET_NO>999</ELEMENT_SET_NO><REV_AT_EPOCH>38051</REV_AT_EPOCH><BSTAR>.13625E-2</BSTAR><MEAN_MOTION_DOT>.4429E-4</MEAN_MOTION_DOT><MEAN_MOTION_DDOT>0</MEAN_MOTION_DDOT></tleParameters></data></segment></body></omm>
<omm id="CCSDS_OMM_VERS" version="2.0">
<header><CREATION_DATE/><ORIGINATOR/></header><body><segment><metadata><OBJECT_NAME>ORBCOMM FM06</OBJECT_NAME><OBJECT_ID>1997-084G</OBJECT_ID><CENTER_NAME>EARTH</CENTER_NAME><REF_FRAME>TEME</REF_FRAME><TIME_SYSTEM>UTC</TIME_SYSTEM><MEAN_ELEMENT_THEORY>SGP4</MEAN_ELEMENT_THEORY></metadata><data><meanElements><EPOCH>2024-04-27T08:41:40.584192</EPOCH><MEAN_MOTION>14.42651892</MEAN_MOTION><ECCENTRICITY>.0003322</ECCENTRICITY><INCLINATION>45.0127</INCLINATION><RA_OF_ASC_NODE>199.6336</RA_OF_ASC_NODE><ARG_OF_PERICENTER>277.7633</ARG_OF_PERICENTER><MEAN_ANOMALY>198.0189</MEAN_ANOMALY></meanElements><tleParameters><EPHEMERIS_TYPE>0</EPHEMERIS_TYPE><CLASSIFICATION_TYPE>U</CLASSIFICATION_TYPE><NORAD_CAT_ID>25118</NORAD_CAT_ID><ELEMENT_SET_NO>999</ELEMENT_SET_NO><REV_AT_EPOCH>38140</REV_AT_EPOCH><BSTAR>.15744E-2</BSTAR><MEAN_MOTION_DOT>.5144E-4</MEAN_MOTION_DOT><MEAN_MOTION_DDOT>0</MEAN_MOTION_DDOT></tleParameters></data></segment></body></omm>
<omm id="CCSDS_OMM_VERS" version="2.0">
<header><CREATION_DATE/><ORIGINATOR/></header><body><segment><metadata><OBJECT_NAME>ORBCOMM FM07</OBJECT_NAME><OBJECT_ID>1997-084H</OBJECT_ID><CENTER_NAME>EARTH</CENTER_NAME><REF_FRAME>TEME</REF_FRAME><TIME_SYSTEM>UTC</TIME_SYSTEM><MEAN_ELEMENT_THEORY>SGP4</MEAN_ELEMENT_THEORY></metadata><data><meanElements><EPOCH>2024-04-27T12:55:11.084736</EPOCH><MEAN_MOTION>14.42575367</MEAN_MOTION><ECCENTRICITY>.0005023</ECCENTRICITY><INCLINATION>45.0122</INCLINATION><RA_OF_ASC_NODE>199.3221</RA_OF_ASC_NODE><ARG_OF_PERICENTER>272.4047</ARG_OF_PERICENTER><MEAN_ANOMALY>87.6228</MEAN_ANOMALY></meanElements><tleParameters><EPHEMERIS_TYPE>0</EPHEMERIS_TYPE><CLASSIFICATION_TYPE>U</CLASSIFICATION_TYPE><NORAD_CAT_ID>25119</NORAD_CAT_ID><ELEMENT_SET_NO>999</ELEMENT_SET_NO><REV_AT_EPOCH>38142</REV_AT_EPOCH><BSTAR>.1253E-2</BSTAR><MEAN_MOTION_DOT>.4058E-4</MEAN_MOTION_DOT><MEAN_MOTION_DDOT>0</MEAN_MOTION_DDOT></tleParameters></data></segment></body></omm>
<omm id="CCSDS_OMM_VERS" version="2.0">
<header><CREATION_DATE/><ORIGINATOR/></header><body><segment><metadata><OBJECT_NAME>ORBCOMM FM03</OBJECT_NAME><OBJECT_ID>1998-007B</OBJECT_ID><CENTER_NAME>EARTH</CENTER_NAME><REF_FRAME>TEME</REF_FRAME><TIME_SYSTEM>UTC</TIME_SYSTEM><MEAN_ELEMENT_THEORY>SGP4</MEAN_ELEMENT_THEORY></metadata><data><meanElements><EPOCH>2024-04-27T14:20:03.935328</EPOCH><MEAN_MOTION>14.32111165</MEAN_MOTION><ECCENTRICITY>.0048576</ECCENTRICITY><INCLINATION>107.9729</INCLINATION><RA_OF_ASC_NODE>3.3048</RA_OF_ASC_NODE><ARG_OF_PERICENTER>255.3337</ARG_OF_PERICENTER><MEAN_ANOMALY>104.2413</MEAN_ANOMALY></meanElements><tleParameters><EPHEMERIS_TYPE>0</EPHEMERIS_TYPE><CLASSIFICATION_TYPE>U</CLASSIFICATION_TYPE><NORAD_CAT_ID>25158</NORAD_CAT_ID><ELEMENT_SET_NO>999</ELEMENT_SET_NO><REV_AT_EPOCH>36449</REV_AT_EPOCH><BSTAR>.90713E-3</BSTAR><MEAN_MOTION_DOT>.2345E-4</MEAN_MOTION_DOT><MEAN_MOTION_DDOT>0</MEAN_MOTION_DDOT></tleParameters></data></segment></body></omm>
<omm id="CCSDS_OMM_VERS" version="2.0">
<header><CREATION_DATE/><ORIGINATOR/></header><body><segment><metadata><OBJECT_NAME>ORBCOMM FM04</OBJECT_NAME><OBJECT_ID>1998-007C</OBJECT_ID><CENTER_NAME>EARTH</CENTER_NAME><REF_FRAME>TEME</REF_FRAME><TIME_SYSTEM>UTC</TIME_SYSTEM><MEAN_ELEMENT_THEORY>SGP4</MEAN_ELEMENT_THEORY></metadata><data><meanElements><EPOCH>2024-04-27T14:07:04.647072</EPOCH><MEAN_MOTION>14.32370682</MEAN_MOTION><ECCENTRICITY>.004409</ECCENTRICITY><INCLINATION>107.9710</INCLINATION><RA_OF_ASC_NODE>6.2141</RA_OF_ASC_NODE><ARG_OF_PERICENTER>253.3095</ARG_OF_PERICENTER><MEAN_ANOMALY>106.3202</MEAN_ANOMALY></meanElements><tleParameters><EPHEMERIS_TYPE>0</EPHEMERIS_TYPE><CLASSIFICATION_TYPE>U</CLASSIFICATION_TYPE><NORAD_CAT_ID>25159</NORAD_CAT_ID><ELEMENT_SET_NO>999</ELEMENT_SET_NO><REV_AT_EPOCH>36466</REV_AT_EPOCH><BSTAR>.10028E-2</BSTAR><MEAN_MOTION_DOT>.2614E-4</MEAN_MOTION_DOT><MEAN_MOTION_DDOT>0</MEAN_MOTION_DDOT></tleParameters></data></segment></body></omm>
<omm id="CCSDS_OMM_VERS" version="2.0">
<header><CREATION_DATE/><ORIGINATOR/></header><body><segment><metadata><OBJECT_NAME>ORBCOMM FM17</OBJECT_NAME><OBJECT_ID>1998-046A</OBJECT_ID><CENTER_NAME>EARTH</CENTER_NAME><REF_FRAME>TEME</REF_FRAME><TIME_SYSTEM>UTC</TIME_SYSTEM><MEAN_ELEMENT_THEORY>SGP4</MEAN_ELEMENT_THEORY></metadata><data><meanElements><EPOCH>2024-04-27T12:37:08.303520</EPOCH><MEAN_MOTION>14.33089571</MEAN_MOTION><ECCENTRICITY>.0003426</ECCENTRICITY><INCLINATION>44.9945</INCLINATION><RA_OF_ASC_NODE>56.2836</RA_OF_ASC_NODE><ARG_OF_PERICENTER>303.5439</ARG_OF_PERICENTER><MEAN_ANOMALY>56.5080</MEAN_ANOMALY></meanElements><tleParameters><EPHEMERIS_TYPE>0</EPHEMERIS_TYPE><CLASSIFICATION_TYPE>U</CLASSIFICATION_TYPE><NORAD_CAT_ID>25413</NORAD_CAT_ID><ELEMENT_SET_NO>999</ELEMENT_SET_NO><REV_AT_EPOCH>34350</REV_AT_EPOCH><BSTAR>.105E-2</BSTAR><MEAN_MOTION_DOT>.2765E-4</MEAN_MOTION_DOT><MEAN_MOTION_DDOT>0</MEAN_MOTION_DDOT></tleParameters></data></segment></body></omm>
<omm id="CCSDS_OMM_VERS" version="2.0">
<header><CREATION_DATE/><ORIGINATOR/></header><body><segment><metadata><OBJECT_NAME>ORBCOMM FM18</OBJECT_NAME><OBJECT_ID>1998-046B</OBJECT_ID><CENTER_NAME>EARTH</CENTER_NAME><REF_FRAME>TEME</REF_FRAME><TIME_SYSTEM>UTC</TIME_SYSTEM><MEAN_ELEMENT_THEORY>SGP4</MEAN_ELEMENT_THEORY></metadata><data><meanElements><EPOCH>2024-04-27T08:04:21.640512</EPOCH><MEAN_MOTION>14.35833681</MEAN_MOTION><ECCENTRICITY>.0004143</ECCENTRICITY><INCLINATION>44.9941</INCLINATION><RA_OF_ASC_NODE>344.5495</RA_OF_ASC_NODE><ARG_OF_PERICENTER>351.4718</ARG_OF_PERICENTER><MEAN_ANOMALY>8.6058</MEAN_ANOMALY></meanElements><tleParameters><EPHEMERIS_TYPE>0</EPHEMERIS_TYPE><CLASSIFICATION_TYPE>U</CLASSIFICATION_TYPE><NORAD_CAT_ID>25414</NORAD_CAT_ID><ELEMENT_SET_NO>999</ELEMENT_SET_NO><REV_AT_EPOCH>34442</REV_AT_EPOCH><BSTAR>.13226E-2</BSTAR><MEAN_MOTION_DOT>.3726E-4</MEAN_MOTION_DOT><MEAN_MOTION_DDOT>0</MEAN_MOTION_DDOT></tleParameters></data></segment></body></omm>
<omm id="CCSDS_OMM_VERS" version="2.0">
<header><CREATION_DATE/><ORIGINATOR/></header><body><segment><metadata><OBJECT_NAME>ORBCOMM FM19</OBJECT_NAME><OBJECT_ID>1998-046C</OBJECT_ID><CENTER_NAME>EARTH</CENTER_NAME><REF_FRAME>TEME</REF_FRAME><TIME_SYSTEM>UTC</TIME_SYSTEM><MEAN_ELEMENT_THEORY>SGP4</MEAN_ELEMENT_THEORY></metadata><data><meanElements><EPOCH>2024-04-26T16:19:27.825888</EPOCH><MEAN_MOTION>14.35663187</MEAN_MOTION><ECCENTRICITY>.0003128</ECCENTRICITY><INCLINATION>44.9951</INCLINATION><RA_OF_ASC_NODE>349.0433</RA_OF_ASC_NODE><ARG_OF_PERICENTER>341.2893</ARG_OF_PERICENTER><MEAN_ANOMALY>47.0878</MEAN_ANOMALY></meanElements><tleParameters><EPHEMERIS_TYPE>0</EPHEMERIS_TYPE><CLASSIFICATION_TYPE>U</CLASSIFICATION_TYPE><NORAD_CAT_ID>25415</NORAD_CAT_ID><ELEMENT_SET_NO>999</ELEMENT_SET_NO><REV_AT_EPOCH>34429</REV_AT_EPOCH><BSTAR>.13133E-2</BSTAR><MEAN_MOTION_DOT>.3685E-4</MEAN_MOTION_DOT><MEAN_MOTION_DDOT>0</MEAN_MOTION_DDOT></tleParameters></data></segment></body></omm>

</ndm>
